[{"OBJECT_NAME":"STARLINK-3877","OBJECT_ID":"2022-045AA","EPOCH":"2026-03-09T14:56:40.136064","MEAN_MOTION":15.0883959,"ECCENTRICITY":0.0001192,"INCLINATION":53.2181,"RA_OF_ASC_NODE":199.4243,"ARG_OF_PERICENTER":84.7847,"MEAN_ANOMALY":275.3281,"EPHEMERIS_TYPE":0,"CLASSIFICATION_TYPE":"U","NORAD_CAT_ID":52355,"ELEMENT_SET_NO":999,"REV_AT_EPOCH":21577,"BSTAR":-2.417e-5,"MEAN_MOTION_DOT":-6.72e-6,"MEAN_MOTION_DDOT":0},{"OBJECT_NAME":"TIUNGSAT-1 (MO-46)","OBJECT_ID":"2000-057D","EPOCH":"2026-03-09T15:36:52.176096","MEAN_MOTION":15.01128781,"ECCENTRICITY":0.003692,"INCLINATION":64.5465,"RA_OF_ASC_NODE":82.7132,"ARG_OF_PERICENTER":302.2682,"MEAN_ANOMALY":57.4857,"EPHEMERIS_TYPE":0,"CLASSIFICATION_TYPE":"U","NORAD_CAT_ID":26548,"ELEMENT_SET_NO":999,"REV_AT_EPOCH":38128,"BSTAR":0.00030184,"MEAN_MOTION_DOT":3.762e-5,"MEAN_MOTION_DDOT":0}]
